IRIDIUM 36              
1 24967U 97056C   24238.90087331  .00000806  00000+0  26561-3 0  9991
2 24967  86.3952 297.0274 0002071  95.7595 264.3838 14.36981221409806
IRIDIUM 39              
1 25042U 97069D   24238.86943533  .00001730  00000+0  45777-3 0  9997
2 25042  86.3964 337.7323 0017305 206.3346 153.6979 14.48230046406203
IRIDIUM 38              
1 25043U 97069E   24238.88651820  .00001182  00000+0  38897-3 0  9991
2 25043  86.4011 357.3769 0002400  45.1857 314.9536 14.37448862403524
IRIDIUM 42              
1 25077U 97077A   24238.88286614  .00001059  00000+0  36004-3 0  9993
2 25077  86.4013   3.1792 0002211  75.6205 284.5237 14.35730426398813
IRIDIUM 44              
1 25078U 97077B   24238.79630252  .00001100  00000+0  34631-3 0  9996
2 25078  86.4009 345.9441 0000340  65.8165 294.3069 14.39579226401195
IRIDIUM 45              
1 25104U 97082A   24238.91873932  .00029094  00000+0  15161-2 0  9998
2 25104  86.3742 189.4610 0150031 346.7754  12.9564 15.06526543407341
IRIDIUM 24              
1 25105U 97082B   24238.93710440  .00001310  00000+0  39851-3 0  9999
2 25105  86.3941 205.3493 0010700 345.3463  14.7425 14.41377219400677
IRIDIUM 51              
1 25262U 98018A   24238.95290903  .00026032  00000+0  11048-2 0  9997
2 25262  86.3977 199.0264 0131240 285.0994  73.5758 15.15368760401965
